,agency,location_id,name,latitude,longitude,lat_long_type,county,hydrologic_unit,drainage_area,datum_of_gage,datum_type
0,USGS,01302050,ALLEY CREEK NEAR OAKLAND GARDENS NY,"40°45'21""","73°44'45""",NAD83,Queens,02030201,0.68,,
1,USGS,01302125,GABBLERS CREEK AT LITTLE NECK NY,"40°46'23.4""","73°44'39.6""",NAD83,Queens,02030201,0.52,10,NGVD29
2,USGS,01303000,MILL NECK CREEK AT MILL NECK NY,"40°53'14.7""","73°33'47.5""",NAD83,Nassau,02030201,8.58,6.49,NGVD29
3,USGS,01303500,COLD SPRING BROOK AT COLD SPRING HARBOR NY,"40°51'25.8""","73°27'48.8""",NAD83,Nassau,02030201,7.83,5.38,NGVD29
4,USGS,01304000,NISSEQUOGUE RIVER NEAR SMITHTOWN NY,"40°50'59.7""","73°13'27.2""",NAD83,Suffolk,02030201,27.0,9.59,NGVD29
5,USGS,01304500,PECONIC RIVER AT RIVERHEAD NY,"40°54'49.3""","72°41'13.0""",NAD83,Suffolk,02030202,74.7,6.54,NGVD29
6,USGS,01305000,CARMANS RIVER AT YAPHANK NY,"40°49'48.6""","72°54'22.1""",NAD83,Suffolk,02030202,73.1,17.95,NGVD29
7,USGS,01305500,SWAN RIVER AT EAST PATCHOGUE NY,"40°46'02.1""","72°59'37.8""",NAD83,Suffolk,02030202,8.07,2.84,NGVD29
8,USGS,01306460,CONNETQUOT BK NR CENTRAL ISLIP NY,"40°46'20.2""","73°09'31.2""",NAD83,Suffolk,02030202,21.9,15.10,NGVD29
9,USGS,01306495,CONNETQUOT RIVER DISTRIBUTORY NEAR OAKDALE NY,"40°45'00""","73°08'53""",NAD27,Suffolk,02030202,27.66,,
10,USGS,01306499,CONNETQUOT RIVER NEAR NORTH GREAT RIVER NY,"40°44'51""","73°09'03""",NAD27,Suffolk,02030202,,,
11,USGS,01308000,SAMPAWAMS CREEK AT BABYLON NY,"40°42'15.7""","73°18'49.1""",NAD83,Suffolk,02030202,22.7,6.36,NGVD29
12,USGS,01308500,CARLLS RIVER AT BABYLON NY,"40°42'32.3""","73°19'43.7""",NAD83,Suffolk,02030202,35.4,10.63,NGVD29
13,USGS,01309500,MASSAPEQUA CREEK AT MASSAPEQUA NY,"40°41'20.4""","73°27'19.4""",NAD83,Nassau,02030202,38.6,18.31,NGVD29
14,USGS,01309950,BELLMORE CREEK NEAR BELLMORE NY,"40°40'43.2""","73°30'57.1""",NAD83,Nassau,02030202,14.2,,
15,USGS,01309990,BELLMORE CREEK TRIBUTARY AT BELLMORE NY,"40°40'48.4""","73°30'46.8""",NAD83,Nassau,02030202,0.04,16.96,NGVD29
16,USGS,01310500,EAST MEADOW BROOK AT FREEPORT NY,"40°39'56.3""","73°34'12.3""",NAD83,Nassau,02030202,28.7,10.45,NGVD29
17,USGS,01311500,VALLEY STREAM AT VALLEY STREAM NY,"40°39'49.7""","73°42'16.3""",NAD83,Nassau,02030202,3.77,6.30,NAVD88
18,USGS,01311810,CONSELYEAS POND TRIBUTARY AT ROSEDALE NY,"40°39'43.4""","73°44'35.9""",NAD83,Queens,02030202,12.9,,
19,USGS,01311875,ROCKAWAY INLET NEAR FLOYD BENNETT FIELD NY,"40°34'25""","73°53'08""",NAD27,Kings,02030202,,0,NGVD29
20,USGS,0131199050,FISHING BROOK (COUNTY LINE FLOW OUTLET) NR NEWCOMB,"43°58'38.6""","74°16'13.5""",NAD83,Hamilton,02020001,25.2,,
21,USGS,01312000,HUDSON RIVER NEAR NEWCOMB NY,"43°57'57.7""","74°07'53.0""",NAD83,Essex,02020001,192,1550.04,NAVD88
22,USGS,01315000,INDIAN RIVER NEAR INDIAN LAKE NY,"43°45'23.4""","74°16'01.4""",NAD83,Hamilton,02020001,132,1603.94,NAVD88
23,USGS,01315081,INDIAN RIVER BLW LAKE ABANAKEE NR INDIAN LAKE NY,"43°47'55.4""","74°13'46.3""",NAD83,Hamilton,02020001,195,,
24,USGS,01315170,DURGIN BROOK AT BOREAS RIVER NY,"43°56'23.4""","73°57'13.0""",NAD83,Essex,02020001,6.86,1740,NAVD88
25,USGS,01315226,VANDERWHACKER BROOK TRIB 1 NEAR BOREAS RIVER NY,"43°56'54.6""","73°59'18.1""",NAD83,Essex,02020001,.09,,
26,USGS,01315227,VANDERWHACKER BROOK TRIB 2 NEAR BOREAS RIVER NY,"43°56'53.5""","73°59'24.4""",NAD83,Essex,02020001,0.35,1910,NAVD88
27,USGS,01315500,HUDSON RIVER AT NORTH CREEK NY,"43°42'03""","73°59'00""",NAD83,Warren,02020001,792,987.51,NGVD29
28,USGS,01317000,SCHROON RIVER AT RIVERBANK NY,"43°36'34.3""","73°44'15.0""",NAD83,Warren,02020001,527,699.10,NAVD88
29,USGS,01318500,HUDSON RIVER AT HADLEY NY,"43°19'08""","73°50'39""",NAD83,Saratoga,02020001,1664,563.99,NGVD29
30,USGS,01321000,SACANDAGA RIVER NEAR HOPE NY,"43°21'10""","74°16'13""",NAD83,Hamilton,02020002,491,880.74,NAVD88
31,USGS,01325000,SACANDAGA RIVER AT STEWARTS BRIDGE NR HADLEY NY,"43°18'41""","73°52'02""",NAD83,Saratoga,02020002,1055,581.28,NAVD88
32,USGS,01327500,GLENS FALLS FEEDER AT DUNHAM BASIN NY,"43°18'15.3""","73°32'47.4""",NAD83,Washington,02020003,,138.56,NAVD88
33,USGS,01327750,HUDSON RIVER AT FORT EDWARD NY,"43°16'09.8""","73°35'45.0""",NAD83,Washington,02020003,2810,99.13,NAVD88
34,USGS,01328770,HUDSON RIVER AT THOMSON NY,"43°07'31.4""","73°35'05.7""",NAD83,Washington,02020003,3000,81.65,NAVD88
35,USGS,01329490,BATTEN KILL BELOW MILL AT BATTENVILLE NY,"43°06'31.2""","73°25'20.7""",NAD83,Washington,02020003,396,372.62,NAVD88
36,USGS,01329500,BATTEN KILL AT BATTENVILLE NY,"43°06'01.9""","73°25'52.4""",NAD83,Washington,02020003,396,369.09,NGVD29
37,USGS,01330000,GLOWEGEE CREEK AT WEST MILTON NY,"43°01'50.9""","73°55'39.3""",NAD83,Saratoga,02020003,24.9,407.22,NGVD29
38,USGS,01330500,KAYADEROSSERAS CREEK NR WEST MILTON NY,"43°02'18""","73°54'33""",NAD83,Saratoga,02020003,84.2,376.06,NGVD29
39,USGS,01334500,HOOSIC RIVER NEAR EAGLE BRIDGE NY,"42°56'18.9""","73°22'37.0""",NAD83,Rensselaer,02020003,510,354.79,NAVD88
40,USGS,01335754,HUDSON RIVER ABOVE LOCK 1 NEAR WATERFORD NY,"42°49'45""","73°39'58""",NAD83,Saratoga,02020003,4605,0.00,NGVD29
41,USGS,01335755,HUDSON RIVER AT LOCK 1 NEAR WATERFORD NY,"42°49'26""","73°39'45""",NAD27,Saratoga,02020003,4606,,
42,USGS,01336000,MOHAWK RIVER BELOW DELTA DAM NEAR ROME NY,"43°15'52""","75°26'11""",NAD83,Oneida,02020004,152,472.34,NAVD88
43,USGS,01337005,NINEMILE CREEK NEAR STITTVILLE NY,"43°12'28.3""","75°18'20.6""",NAD83,Oneida,02020004,58.5,,
44,USGS,01338000,ORISKANY CREEK NEAR ORISKANY NY,"43°08'34.0""","75°20'16.1""",NAD83,Oneida,02020004,144,428.13,NAVD88
45,USGS,01339060,SAUQUOIT CREEK AT WHITESBORO NY,"43°06'41.2""","75°17'38.4""",NAD83,Oneida,02020004,59.8,419.98,NAVD88
46,USGS,01342602,MOHAWK RIVER NEAR UTICA NY,"43°05'37.3""","75°09'28.5""",NAD83,Herkimer,02020004,553,386.02,NAVD88
47,USGS,01342682,MOYER CREEK NEAR FRANKFORT NY,"43°01'37.0""","75°06'15.5""",NAD83,Herkimer,02020004,18.2,592.00,NAVD88
48,USGS,01342730,STEELE CREEK AT ILION NY,"43°00'23.7""","75°02'30.0""",NAD83,Herkimer,02020004,26.4,426.52,NAVD88
49,USGS,01342743,FULMER CREEK NEAR MOHAWK NY,"42°59'06.8""","74°59'25.6""",NAD83,Herkimer,02020004,21.7,533.14,NAVD88
50,USGS,0134277112,HONNEDAGA LAKE TRIBUTARY NO. 2 NR FOREST LODGE NY,"43°32'01.7""","74°51'42.6""",NAD83,Herkimer,02020004,0.07,2200,NAVD88
51,USGS,0134277114,HONNEDAGA LAKE TRIBUTARY NO. 3 NR FOREST LODGE NY,"43°31'53.0""","74°51'10.5""",NAD83,Herkimer,02020004,0.12,2200,NAVD88
52,USGS,0134277119,HONNEDAGA L TRIB NO 4 AT FOREST LODGE NY,"43°31'15.8""","74°48'04.0""",NAD83,Herkimer,02020004,0.84,,
53,USGS,0134277121,HONNEDAGA LAKE TRIBUTARY NO. 5 AT FOREST LODGE NY,"43°30'51.5""","74°47'55.9""",NAD83,Herkimer,02020004,0.12,,
54,USGS,0134277123,HONNEDAGA LAKE TRIBUTARY NO. 6 AT FOREST LODGE NY,"43°30'41.4""","74°48'53.5""",NAD83,Herkimer,02020004,0.07,,
55,USGS,01343060,WEST CANADA CREEK NEAR WILMURT NY,"43°21'58""","74°57'28""",NAD83,Herkimer,02020004,238,1257.60,NAVD88
56,USGS,01343403,BLACK CREEK NEAR GRAY NY,"43°16'58.0""","74°57'33.1""",NAD83,Herkimer,02020004,60.9,1224.74,NAVD88
57,USGS,01344795,CINCINNATI CREEK AT BARNEVELD NY,"43°16'13.4""","75°11'03.3""",NAD83,Oneida,02020004,44.8,,
58,USGS,01346000,WEST CANADA CREEK AT KAST BRIDGE NY,"43°04'08""","74°59'18""",NAD83,Herkimer,02020004,560,438.99,NGVD29
59,USGS,01347000,MOHAWK RIVER NEAR LITTLE FALLS NY,"43°00'53""","74°46'46""",NAD83,Herkimer,02020004,1342,308.50,NAVD88
60,USGS,01348000,EAST CANADA CREEK AT EAST CREEK NY,"43°01'00""","74°44'27""",NAD83,Herkimer,02020004,289,335.16,NAVD88
61,USGS,01349000,OTSQUAGO CREEK AT FORT PLAIN NY,"42°55'45.3""","74°37'58.4""",NAD83,Montgomery,02020004,61.0,321.44,NAVD88
62,USGS,01349150,CANAJOHARIE CREEK NEAR CANAJOHARIE NY,"42°52'34.6""","74°36'10.3""",NAD83,Montgomery,02020004,59.7,635.23,NAVD88
63,USGS,01349527,MOHAWK R ABOVE STATE HIGHWAY 30A AT FONDA NY,"42°57'01.6""","74°22'15.6""",NAD83,Montgomery,02020004,2118,257.39,NAVD88
64,USGS,01349541,SUGARLOAF BROOK SOUTH OF TANNERSVILLE NY,"42°08'42.8""","74°07'21.5""",NAD83,Greene,02020005,1.12,,
65,USGS,01349700,EAST KILL NEAR JEWETT CENTER NY,"42°14'57""","74°18'10""",NAD83,Greene,02020005,35.6,1451.65,NAVD88
66,USGS,01349705,SCHOHARIE CREEK NEAR LEXINGTON NY,"42°14'13""","74°20'25""",NAD83,Greene,02020005,96.8,1339.23,NAVD88
67,USGS,01349711,WEST KILL BELOW HUNTER BROOK NEAR SPRUCETON NY,"42°11'06.2""","74°16'37.6""",NAD83,Greene,02020005,4.97,2038.89,NAVD88
68,USGS,01349810,WEST KILL NEAR WEST KILL NY,"42°13'49""","74°23'35""",NAD83,Greene,02020005,27.0,1370.67,NGVD29
69,USGS,01349840,BATAVIA KILL NEAR MAPLECREST NY,"42°17'22.7""","74°06'58.6""",NAD83,Greene,02020005,2.03,,
70,USGS,01349900,BATAVIA KILL NEAR ASHLAND NY,"42°17'36""","74°18'21""",NAD83,Greene,02020005,51.2,1440,NGVD29
71,USGS,01349950,BATAVIA KILL AT RED FALLS NEAR PRATTSVILLE NY,"42°18'30""","74°23'24""",NAD83,Greene,02020005,68.6,1268.54,NAVD88
72,USGS,01350000,SCHOHARIE CREEK AT PRATTSVILLE NY,"42°19'10""","74°26'12""",NAD83,Greene,02020005,237,1131.13,NAVD88
73,USGS,01350032,TOAD HOLLOW BROOK NEAR GRAND GORGE NY,"42°19'57.3""","74°29'37.2""",NAD83,Delaware,02020005,0.76,,
74,USGS,01350035,BEAR KILL NEAR PRATTSVILLE NY,"42°20'17""","74°27'06""",NAD83,Delaware,02020005,25.7,1156.77,NAVD88
75,USGS,01350080,MANOR KILL AT WEST CONESVILLE NEAR GILBOA NY,"42°22'37""","74°24'47""",NAD83,Schoharie,02020005,32.4,1254.63,NAVD88
76,USGS,01350101,SCHOHARIE CREEK AT GILBOA NY,"42°23'50.0""","74°27'02.0""",NAD83,Schoharie,02020005,316,938.97,NAVD88
77,USGS,01350120,PLATTER KILL AT GILBOA NY,"42°24'22""","74°26'50""",NAD83,Schoharie,02020005,10.9,1044.69,NAVD88
78,USGS,01350140,MINE KILL NEAR NORTH BLENHEIM NY,"42°25'44""","74°28'23""",NAD83,Schoharie,02020005,16.2,1060.13,NAVD88
79,USGS,01350180,SCHOHARIE CREEK AT NORTH BLENHEIM NY,"42°27'57""","74°27'44""",NAD83,Schoharie,02020005,358,793.92,NAVD88
80,USGS,01350212,SCHOHARIE CREEK NEAR NORTH BLENHEIM NY,"42°28'21.5""","74°26'28.1""",NAD83,Schoharie,02020005,405,766.54,NAVD88
81,USGS,01350355,SCHOHARIE CREEK AT BREAKABEEN NY,"42°32'15.5""","74°24'36.9""",NAD83,Schoharie,02020005,444,686.18,NAVD88
82,USGS,01350480,LITTLE SCHOHARIE CREEK NEAR MIDDLEBURGH NY,"42°34'52.6""","74°19'02.8""",NAD83,Schoharie,02020005,18.1,784.76,NAVD88
83,USGS,01350500,SCHOHARIE CREEK AT MIDDLEBURGH NY,"42°35'58.2""","74°20'10.9""",NAD83,Schoharie,02020005,534,612.48,NAVD88
84,USGS,01350750,SCHOHARIE CREEK AT SCHOHARIE NY,"42°39'55.6""","74°19'33.6""",NAD83,Schoharie,02020005,557,582.18,NAVD88
85,USGS,01351200,FOX CREEK NEAR SCHOHARIE NY,"42°40'23""","74°15'14""",NAD83,Schoharie,02020005,99.0,649.76,NAVD88
86,USGS,01351298,COBLESKILL CREEK AT S GRAND ST AT COBLESKILL NY,"42°40'21.2""","74°28'54.9""",NAD83,Schoharie,02020005,102,879.82,NAVD88
87,USGS,01351450,SCHOHARIE CREEK AT ESPERANCE NY,"42°45'38.1""","74°15'17.2""",NAD83,Schenectady,02020005,870,551.31,NAVD88
88,USGS,01351500,SCHOHARIE CREEK AT BURTONSVILLE NY,"42°48'00.1""","74°15'46.0""",NAD83,Schenectady,02020005,886,507.44,NAVD88
89,USGS,01354083,MOHAWK RIVER AT AMSTERDAM NY,"42°56'02.4""","74°11'30.7""",NAD83,Montgomery,02020004,3152,234.50,NAVD88
90,USGS,01354230,MOHAWK RIVER AT LOCK 9 AT ROTTERDAM JUNCTION NY,"42°52'41.8""","74°02'26.7""",NAD83,Schenectady,02020004,3250,,
91,USGS,01354330,MOHAWK RIVER AT LOCK 8 NEAR SCHENECTADY NY,"42°49'41.37""","73°59'25.34""",NAD83,Schenectady,02020004,3270,199.46,NAVD88
92,USGS,01354500,MOHAWK RIVER AT FREEMAN,"42°49'49.9""","73°55'50.7""",NAD83,Schenectady,02020004,3310,199.46,NAVD88
93,USGS,01355475,MOHAWK RIVER AT REXFORD NY,"42°51'04.0""","73°53'14.1""",NAD83,Saratoga,02020004,3360,199.46,NAVD88
94,USGS,01356000,MOHAWK RIVER AT VISCHER FERRY DAM NY,"42°48'15.1""","73°50'51.6""",NAD83,Saratoga,02020004,3371,199.46,NAVD88
95,USGS,01356190,LISHA KILL NORTHWEST OF NISKAYUNA NY,"42°47'01""","73°51'24""",NAD83,Schenectady,02020004,16.2,238.78,NGVD29
96,USGS,01357500,MOHAWK RIVER AT COHOES NY,"42°47'07.4""","73°42'28.0""",NAD83,Albany,02020004,3450,48.47,NAVD88
97,USGS,01358000,HUDSON RIVER AT GREEN ISLAND NY,"42°45'08""","73°41'20""",NAD83,Albany,02020003,8090,,
98,USGS,01359133,PATROON CR AT NORTHERN BLVD AT ALBANY NY,"42°40'17""","73°45'20""",NAD83,Albany,02020006,13.1,124,NGVD29
99,USGS,01359135,PATROON CREEK AT ALBANY NY,"42°39'48.4""","73°44'41.5""",NAD83,Albany,02020006,13.8,,
100,USGS,01359525,NORMANS KILL AT KARLSFELD NY,"42°38'52.5""","73°50'45.6""",NAD83,Albany,02020006,163,85.86,NAVD88
101,USGS,01359528,NORMANS KILL AT ALBANY NY,"42°38'01.1""","73°48'15.4""",NAD83,Albany,02020006,168,85.86,NAVD88
102,USGS,01359750,MOORDENER KILL AT CASTLETON-ON-HUDSON NY,"42°32'02""","73°44'13""",NAD83,Rensselaer,02020006,31.6,98.72,NGVD29
103,USGS,01360640,VALATIE KILL NEAR NASSAU NY,"42°33'08.5""","73°35'26.1""",NAD83,Rensselaer,02020006,9.48,429.20,NAVD88
104,USGS,01361000,KINDERHOOK CREEK AT ROSSMAN NY,"42°19'51.8""","73°44'40.0""",NAD83,Columbia,02020006,329,24.33,NAVD88
105,USGS,01361200,CLAVERACK CREEK AT CLAVERACK NY,"42°12'58.5""","73°43'49.0""",NAD83,Columbia,02020006,60.6,139.77,NGVD29
106,USGS,01362090,CATSKILL CREEK NEAR CATSKILL NY,"42°13'23.7""","73°53'07.5""",NAD83,Greene,02020006,405,3.96,NGVD29
107,USGS,01362192,PANTHER MTN TRIB TO ESOPUS CR NR OLIVEREA NY,"42°02'01""","74°25'14""",NAD83,Ulster,02020006,1.54,,
108,USGS,0136219503,ESOPUS CREEK BELOW LOST CLOVE RD AT BIG INDIAN NY,"42°05'52.4""","74°26'56.7""",NAD83,Ulster,02020006,29.6,1225.27,NAVD88
109,USGS,013621955,BIRCH CREEK AT BIG INDIAN NY,"42°06'32""","74°27'07""",NAD83,Ulster,02020006,12.5,1227.42,NAVD88
110,USGS,01362200,ESOPUS CREEK AT ALLABEN NY,"42°07'01""","74°22'49""",NAD83,Ulster,02020006,63.7,996.98,NAVD88
111,USGS,01362230,DIVERSION FROM SCHOHARIE RESERVOIR NY,"42°06'52""","74°21'51""",NAD27,Ulster,02020006,,964.39,NAVD88
112,USGS,01362232,BROADSTREET HOLLOW BROOK AT HWY28 AT ALLABEN NY,"42°06'45.2""","74°21'31.3""",NAD83,Ulster,02020006,9.16,,
113,USGS,01362297,PANTHER KILL AT WOODLAND VALLEY RD NR PHOENICIA NY,"42°04'22.3""","74°20'08.6""",NAD83,Ulster,02020006,3.53,922,NAVD88
114,USGS,0136230002,WOODLAND CREEK ABOVE MOUTH AT PHOENICIA NY,"42°04'47.0""","74°20'04.5""",NAD83,Ulster,02020006,20.6,870.52,NAVD88
115,USGS,01362322,MYRTLE BROOK AT STATE HWY 214 AT EDGEWOOD NY,"42°08'01.0""","74°13'53.5""",NAD83,Greene,02020006,1.81,1530,NAVD88
116,USGS,01362336,STONY CLOVE CR AT JANSSEN RD AT LANESVILLE NY,"42°07'40.6""","74°15'47.7""",NAD83,Greene,02020006,9.25,1280,NAVD88
117,USGS,01362342,HOLLOW TREE BROOK AT LANESVILLE NY,"42°08'32""","74°15'54""",NAD83,Greene,02020006,1.95,1476.46,NAVD88
118,USGS,01362357,WARNER CREEK NEAR CHICHESTER NY,"42°05'46.2""","74°17'25.5""",NAD83,Ulster,02020006,8.71,1119.95,NAVD88
119,USGS,01362368,OX CLOVE NEAR MOUTH AT CHICHESTER NY,"42°06'17.2""","74°18'34.4""",NAD83,Ulster,02020006,3.83,,
120,USGS,01362370,STONY CLOVE CREEK BLW OX CLOVE AT CHICHESTER NY,"42°06'07.3""","74°18'39.2""",NAD83,Ulster,02020006,30.9,947.52,NAVD88
121,USGS,01362380,STONY CLOVE CREEK NEAR PHOENICIA NY,"42°05'53""","74°19'03""",NAD27,Ulster,02020006,31.5,892.69,NGVD29
122,USGS,01362465,BEAVER KILL TRIBUTARY ABOVE LAKE HILL NY,"42°04'59""","74°10'59""",NAD83,Ulster,02020006,1.02,,
123,USGS,01362487,BEAVER KILL AT MOUNT TREMPER NY,"42°02'48""","74°16'38""",NAD27,Ulster,02020006,25.0,700,NAVD88
124,USGS,01362497,LITTLE BEAVER KILL AT BEECHFORD NEAR MT TREMPER NY,"42°01'10""","74°15'59""",NAD83,Ulster,02020006,16.5,658.36,NAVD88
125,USGS,01362500,ESOPUS CREEK AT COLDBROOK NY,"42°00'52.1""","74°16'12.7""",NAD83,Ulster,02020006,192,621.54,NGVD29
126,USGS,01363382,BUSH KILL BLW MALTBY HOLLOW BK AT WEST SHOKAN NY,"41°57'56""","74°17'35""",NAD83,Ulster,02020006,17.0,682.34,NAVD88
127,USGS,01363556,ESOPUS CREEK NEAR LOMONTVILLE NY,"41°52'45.6""","74°08'43.3""",NAD83,Ulster,02020006,279,190.96,NAVD88
128,USGS,01364500,ESOPUS CREEK AT MOUNT MARION NY,"42°02'16""","73°58'19""",NAD83,Ulster,02020006,419,39.36,NAVD88
129,USGS,01365000,RONDOUT CREEK NEAR LOWES CORNERS NY,"41°51'59""","74°29'14""",NAD83,Sullivan,02020007,38.3,874.68,NAVD88
130,USGS,01365080,PEPACTON RES DIV OUTLET NR GRAHAMSVILLE NY,"41°51'35.5""","74°30'35.9""",NAD83,Sullivan,02020007,,833.51,NAVD88
131,USGS,01365100,CANNONSVILLE RES DIV CHANNEL NR GRAHAMSVILLE NY,"41°51'07.6""","74°30'46.9""",NAD83,Sullivan,02020007,,833.89,NAVD88
132,USGS,01365500,CHESTNUT CREEK AT GRAHAMSVILLE NY,"41°50'42""","74°32'22""",NAD83,Sullivan,02020007,20.9,878.31,NAVD88
133,USGS,01365505,NEVERSINK RES DIVERSION CHANNEL AT GRAHAMSVILLE NY,"41°50'44.0""","74°32'09.9""",NAD83,Sullivan,02020007,,,
134,USGS,01365550,CHESTNUT CREEK AT MOUTH AT GRAHAMSVILLE NY,"41°50'56.7""","74°31'54.6""",NAD83,Sullivan,02020007,21.5,841.33,NAVD88
135,USGS,01367500,RONDOUT CREEK AT ROSENDALE NY,"41°50'35.1""","74°05'10.0""",NAD83,Ulster,02020007,383,31.94,NAVD88
136,USGS,01368050,WALLKILL RIVER AT OIL CITY ROAD NEAR UNIONVILLE NY,"41°17'16.2""","74°32'03.6""",NAD83,Orange,02020007,152,373.43,NAVD88
137,USGS,01370520,WALLKILL RIVER AT PHILLIPSBURG NY,"41°26'18.2""","74°21'57.4""",NAD83,Orange,02020007,429,348.33,NAVD88
138,USGS,01371000,SHAWANGUNK KILL AT PINE BUSH NY,"41°37'08""","74°17'36""",NAD83,Ulster,02020007,104,302.06,NGVD29
139,USGS,01371500,WALLKILL RIVER AT GARDINER NY,"41°41'10.1""","74°09'55.0""",NAD83,Ulster,02020007,695,183.70,NAVD88
140,USGS,01372051,FALL KILL AT POUGHKEEPSIE NY,"41°42'36""","73°55'34""",NAD83,Dutchess,02020008,18.8,148,NAVD88
141,USGS,01372500,WAPPINGER CREEK NEAR WAPPINGERS FALLS NY,"41°39'11""","73°52'21""",NAD83,Dutchess,02020008,181,114.37,NGVD29
142,USGS,0137449480,EAST BRANCH CROTON RIVER NEAR PUTNAM LAKE NY,"41°26'50.1""","73°33'21.9""",NAD83,Putnam,02030101,62.1,414.81,NAVD88
143,USGS,01374505,EAST BRANCH CROTON RIVER AT BREWSTER NY,"41°23'40.5""","73°36'26.9""",NAD83,Putnam,02030101,81.2,315.74,NAVD88
144,USGS,01374531,EAST BRANCH CROTON RIVER NEAR CROTON FALLS NY,"41°22'24.2""","73°38'22.5""",NAD83,Putnam,02030101,86.4,270.50,NAVD88
145,USGS,01374559,WEST BRANCH CROTON RIVER AT RICHARDSVILLE NY,"41°28'13.7""","73°45'34.5""",NAD83,Putnam,02030101,11.0,586.60,NAVD88
146,USGS,01374581,W BR CROTON RIVER BELOW DAM NEAR KENT CLIFFS NY,"41°26'59.8""","73°44'10.0""",NAD83,Putnam,02030101,22.4,528.53,NAVD88
147,USGS,01374598,HORSE POUND BROOK NEAR LAKE CARMEL NY,"41°28'33.1""","73°41'22.1""",NAD83,Putnam,02030101,3.94,539.63,NAVD88
148,USGS,0137462010,WEST BRANCH CROTON RIVER NEAR CARMEL NY,"41°24'42.5""","73°41'37.5""",NAD83,Putnam,02030101,42.9,446.96,NAVD88
149,USGS,01374654,MIDDLE BRANCH CROTON RIVER NEAR CARMEL NY,"41°25'55.9""","73°39'06.4""",NAD83,Putnam,02030101,13.7,478.89,NGVD29
150,USGS,01374701,WEST BRANCH CROTON RIVER NEAR CROTON FALLS NY,"41°21'28.8""","73°40'04.7""",NAD83,Putnam,02030101,80.4,205.48,NAVD88
151,USGS,01374781,TITICUS RIVER BELOW JUNE ROAD AT SALEM CENTER NY,"41°19'38.5""","73°35'29.3""",NAD83,Westchester,02030101,12.9,331.84,NAVD88
152,USGS,01374821,TITICUS RIVER AT PURDYS STATION NY,"41°19'37.6""","73°39'20.3""",NAD83,Westchester,02030101,23.8,199.49,NAVD88
153,USGS,01374890,CROSS RIVER NEAR CROSS RIVER NY,"41°15'36.8""","73°36'06.7""",NAD83,Westchester,02030101,17.1,333.72,NAVD88
154,USGS,01374901,CROSS RIVER AT KATONAH NY,"41°15'58""","73°39'56""",NAD83,Westchester,02030101,29.9,203.26,NAVD88
155,USGS,01374918,STONE HILL RIVER SOUTH OF KATONAH NY,"41°14'58""","73°40'13""",NAD83,Westchester,02030101,18.7,,
156,USGS,01374930,MUSCOOT RIVER AT BALDWIN PLACE NY,"41°20'17.3""","73°46'07.3""",NAD83,Westchester,02030101,13.5,498.21,NAVD88
157,USGS,01374941,MUSCOOT RIVER BELOW DAM AT AMAWALK NY,"41°17'15.4""","73°45'13.1""",NAD83,Westchester,02030101,19.7,313.93,NAVD88
158,USGS,01374976,ANGLE FLY BROOK AT WHITEHALL CORNERS NY,"41°16'57.1""","73°43'31.6""",NAD83,Westchester,02030101,3.01,,
159,USGS,01374987,KISCO RIVER BELOW MOUNT KISCO NY,"41°13'43.5""","73°44'37.0""",NAD83,Westchester,02030101,17.6,208,NAVD88
160,USGS,0137499350,HUNTER BROOK SOUTH OF YORKTOWN NY,"41°15'43""","73°50'34""",NAD83,Westchester,02030101,7.42,,
161,USGS,01375000,CROTON R AT NEW CROTON DAM NR CROTON-ON-HUDSON NY,"41°13'30.1""","73°51'32.0""",NAD83,Westchester,02030101,378,43.12,NAVD88
162,USGS,01376534,RICHMOND CREEK AT LIGHTHOUSE AVE AT RICHMOND NY,"40°34'25.4""","74°08'28.7""",NAD83,Richmond,02030104,1.62,,
163,USGS,01376558,LEMON CREEK AT AMBOY ROAD AT PLEASANT PLAINS NY,"40°31'31.5""","74°12'33.8""",NAD83,Richmond,02030104,1.20,,
164,USGS,01376800,HACKENSACK RIVER AT WEST NYACK NY,"41°05'44""","73°57'50""",NAD83,Rockland,02030103,30.7,52.53,NAVD88
165,USGS,01387095,RAMAPO R AT MARY H HARRIMAN MEM PK AT HARRIMAN NY,"41°18'41.6""","74°08'49.1""",NAD83,Orange,02030103,10.4,522.23,NAVD88
166,USGS,01387400,RAMAPO RIVER AT RAMAPO NY,"41°08'25""","74°10'07""",NAD83,Rockland,02030103,86.9,295.78,NAVD88
167,USGS,01387420,RAMAPO RIVER AT SUFFERN NY,"41°07'06""","74°09'37""",NAD83,Rockland,02030103,93.0,263.29,NAVD88
168,USGS,01387450,Mahwah River near Suffern NY,"41°08'28""","74°06'58""",NAD83,Rockland,02030103,12.3,321.57,NGVD29
169,USGS,01413088,EAST BRANCH DELAWARE RIVER AT ROXBURY NY,"42°17'37.7""","74°33'33.1""",NAD83,Delaware,02040102,13.5,1478.33,NAVD88
170,USGS,01413398,BUSH KILL NEAR ARKVILLE NY,"42°09'03""","74°36'05""",NAD83,Delaware,02040102,46.7,1370.79,NAVD88
171,USGS,01413408,DRY BROOK AT ARKVILLE,"42°08'48""","74°37'24""",NAD83,Delaware,02040102,82.2,1335.67,NAVD88
172,USGS,01413500,EAST BRANCH DELAWARE RIVER AT MARGARETVILLE NY,"42°08'41""","74°39'13""",NAD83,Delaware,02040102,163,1301.67,NAVD88
173,USGS,01414000,PLATTE KILL AT DUNRAVEN NY,"42°07'59""","74°41'44""",NAD83,Delaware,02040102,34.9,1293.75,NAVD88
174,USGS,01414500,MILL BROOK NEAR DUNRAVEN NY,"42°06'22""","74°43'50""",NAD83,Delaware,02040102,25.2,1297.18,NAVD88
175,USGS,01415000,TREMPER KILL NEAR ANDES NY,"42°07'12""","74°49'07""",NAD83,Delaware,02040102,33.2,1285.20,NAVD88
176,USGS,01415460,TERRY CLOVE KILL NEAR DE LANCEY NY,"42°08'49.6""","74°54'18.8""",NAD83,Delaware,02040102,7.91,1419.53,NAVD88
177,USGS,01417000,EAST BRANCH DELAWARE RIVER AT DOWNSVILLE NY,"42°04'30.1""","74°58'34.6""",NAD83,Delaware,02040102,372,1093.67,NAVD88
178,USGS,01417500,EAST BRANCH DELAWARE RIVER AT HARVARD NY,"42°01'28.5""","75°07'09.4""",NAD83,Delaware,02040102,458,1006.86,NAVD88
179,USGS,01419500,WILLOWEMOC CREEK NR LIVINGSTON MANOR NY,"41°54'12""","74°48'46""",NAD83,Sullivan,02040102,62.6,1433.14,NAVD88
180,USGS,01420500,BEAVER KILL AT COOKS FALLS NY,"41°56'47.1""","74°58'46.8""",NAD83,Delaware,02040102,241,1153.66,NAVD88
181,USGS,01420980,E BR DELAWARE RIVER ABV READ CR AT FISHS EDDY NY,"41°58'34""","75°10'16""",NAD27,Delaware,02040102,766,,
182,USGS,01421000,EAST BRANCH DELAWARE RIVER AT FISHS EDDY NY,"41°58'23.8""","75°10'29.0""",NAD83,Delaware,02040102,784,955.47,NAVD88
183,USGS,01421610,WEST BRANCH DELAWARE RIVER AT HOBART NY,"42°22'17""","74°40'08""",NAD83,Delaware,02040101,16.0,1621.88,NAVD88
184,USGS,01421618,TOWN BROOK SOUTHEAST OF HOBART NY,"42°21'40""","74°39'44""",NAD83,Delaware,02040101,14.3,1658.43,NAVD88
185,USGS,01421900,WEST BRANCH DELAWARE RIVER UPSTREAM FROM DELHI NY,"42°16'49""","74°54'26""",NAD83,Delaware,02040101,134,1350.34,NAVD88
186,USGS,01422389,COULTER BROOK NEAR BOVINA CENTER NY,"42°14'18.7""","74°44'09.5""",NAD83,Delaware,02040101,0.76,,
187,USGS,01422500,LITTLE DELAWARE RIVER NEAR DELHI NY,"42°15'08.6""","74°54'03.8""",NAD83,Delaware,02040101,49.8,1384.77,NAVD88
188,USGS,01422738,WOLF CREEK AT MUNDALE NY,"42°15'34""","75°02'31""",NAD83,Delaware,02040101,0.61,,
189,USGS,01422747,EAST BROOK EAST OF WALTON NY,"42°10'21.6""","75°07'18.9""",NAD83,Delaware,02040101,24.7,1219.09,NAVD88
190,USGS,01422779,WEST BROOK AT AUSTIN LINCOLN PARK AT WALTON NY,"42°10'38.6""","75°07'44.1""",NAD83,Delaware,02040101,22.3,1219.31,NAVD88
191,USGS,01423000,WEST BRANCH DELAWARE RIVER AT WALTON NY,"42°09'58.0""","75°08'24.1""",NAD83,Delaware,02040101,332,1187.77,NAVD88
192,USGS,0142400103,TROUT CREEK NEAR TROUT CREEK NY,"42°10'24.9""","75°16'46.0""",NAD83,Delaware,02040101,20.2,1158.87,NAVD88
193,USGS,01424108,SHERRUCK BROOK TRIBUTARY NEAR TROUT CREEK NY,"42°11'16""","75°18'56""",NAD83,Delaware,02040101,1.30,,
194,USGS,01424998,CANNONSVILLE RES RELEASE CHANNEL NR STILESVILLE NY,"42°03'43.94""","75°22'44.05""",NAD83,Delaware,02040101,456,993.16,NAVD88
195,USGS,01425000,WEST BRANCH DELAWARE RIVER AT STILESVILLE NY,"42°04'29.7""","75°23'44.9""",NAD83,Delaware,02040101,456,991.68,NAVD88
196,USGS,01425805,OQUAGA CREEK AT MCCLURE NY,"42°02'55.3""","75°29'06.7""",NAD83,Broome,02040101,58.2,1064.51,NAVD88
197,USGS,01426500,WEST BRANCH DELAWARE RIVER AT HALE EDDY NY,"42°00'10.9""","75°23'00.7""",NAD83,Delaware,02040101,595,945.98,NAVD88
198,USGS,01427500,CALLICOON CREEK AT CALLICOON NY,"41°45'38.0""","75°02'54.2""",NAD83,Sullivan,02040101,110,759.30,NAVD88
199,USGS,01428000,TENMILE RIVER AT TUSTEN NY,"41°33'50""","75°00'52""",NAD83,Sullivan,02040101,45.6,711.28,NAVD88
200,USGS,01428500,DELAWARE R ABOVE LACKAWAXEN R NEAR BARRYVILLE NY,"41°30'31.5""","74°59'09.8""",NAD83,Sullivan,02040101,2020,599.51,NAVD88
201,USGS,01432900,MONGAUP RIVER AT MONGAUP VALLEY NY,"41°40'05""","74°46'50""",NAD83,Sullivan,02040104,76.6,1068.40,NAVD88
202,USGS,01433005,MONGAUP R BELOW SWINGING BRIDGE RESERVOIR NY,"41°34'02.2""","74°46'59.8""",NAD83,Sullivan,02040104,116,936.26,NAVD88
203,USGS,01433500,MONGAUP RIVER NEAR MONGAUP NY,"41°27'40.4""","74°45'31.6""",NAD83,Sullivan,02040104,200,623.49,NAVD88
204,USGS,01433510,MONGAUP RIVER AT MONGAUP NY,"41°25'36""","74°45'22""",NAD27,Orange,02040104,206,,
205,USGS,0143351103,DELAWARE RIVER BELOW MOUTH OF MONGAUP RIVER,"41°25'29""","74°45'18""",NAD27,Sullivan,02040104,3038,,
206,USGS,0143400680,E BR NEVERSINK R NORTHEAST OF DENNING NY,"41°58'01""","74°26'53""",NAD83,Ulster,02040104,8.93,2140.70,NAVD88
207,USGS,01434013,EAST BRANCH NEVERSINK RIVER EAST OF LADLETON NY,"41°56'18""","74°30'19""",NAD83,Ulster,02040104,18.6,2060,NGVD29
208,USGS,01434017,EAST BRANCH NEVERSINK RIVER NEAR CLARYVILLE NY,"41°55'31""","74°32'25""",NAD83,Ulster,02040104,22.9,1727.44,NAVD88
209,USGS,01434021,W BR NEVERSINK R AT WINNISOOK L NR FROST VALLEY NY,"42°00'40""","74°24'52""",NAD83,Ulster,02040104,0.83,2675.00,NAVD88
210,USGS,0143402265,W BR NEVERSINK R AT BRANCH NR FROST VALLEY NY,"41°59'25""","74°28'51""",NAD83,Ulster,02040104,7.89,1880,NGVD29
211,USGS,01434025,BISCUIT BK ABOVE PIGEON BK AT FROST VALLEY NY,"41°59'45.9""","74°30'00.8""",NAD83,Ulster,02040104,3.72,2057.25,NAVD88
212,USGS,01434072,SOUTH SHELTER CR SOUTH OF FROST VALLEY NY,"41°58'20""","74°30'30""",NAD83,Ulster,02040104,0.31,,
213,USGS,01434073,NORTH SHELTER CREEK NEAR FROST VALLEY NY,"41°58'22""","74°30'21""",NAD83,Ulster,02040104,0.24,,
214,USGS,01434076,SHELTER CREEK SOUTH OF FROST VALLEY NY,"41°58'18""","74°30'35""",NAD83,Ulster,02040104,0.40,,
215,USGS,01434080,DRY CREEK ABOVE SEEP ZONE NEAR FROST VALLEY NY,"41°58'04""","74°30'42""",NAD83,Ulster,02040104,0.10,,
216,USGS,01434084,WEST DRY CREEK NEAR FROST VALLEY NY,"41°58'05""","74°30'44""",NAD83,Ulster,02040104,0.12,,
217,USGS,01434086,DRY CREEK AT FLUME NEAR FROST VALLEY NY,"41°58'06""","74°30'45""",NAD83,Ulster,02040104,0.13,,
218,USGS,01434087,SEEP BROOK NEAR FROST VALLEY NY,"41°58'07""","74°30'44""",NAD83,Ulster,02040104,0.13,,
219,USGS,01434092,SHELTER CREEK BELOW DRY CREEK NR FROST VALLEY NY,"41°58'12""","74°30'52""",NAD83,Ulster,02040104,0.59,,
220,USGS,01434105,HIGH FALLS BROOK AT FROST VALLEY NY,"41°58'38""","74°31'20""",NAD83,Ulster,02040104,2.74,1940,NGVD29
221,USGS,01434176,WEST BR NEVERSINK RIVER NR CLARYVILLE NY,"41°57'20""","74°32'59""",NAD83,Ulster,02040104,25.3,1810,NGVD29
222,USGS,01434498,WEST BRANCH NEVERSINK RIVER AT CLARYVILLE NY,"41°55'13.5""","74°34'27.8""",NAD83,Sullivan,02040104,33.8,1615.82,NAVD88
223,USGS,01435000,NEVERSINK RIVER NEAR CLARYVILLE NY,"41°53'23.8""","74°35'23.3""",NAD83,Sullivan,02040104,66.6,1521.67,NAVD88
224,USGS,01436000,NEVERSINK RIVER AT NEVERSINK NY,"41°49'12""","74°38'08""",NAD83,Sullivan,02040104,92.6,1253.99,NAVD88
225,USGS,01436500,NEVERSINK RIVER AT WOODBOURNE NY,"41°45'23.8""","74°35'51.4""",NAD83,Sullivan,02040104,113,1180,NGVD29
226,USGS,01436655,SHELDRAKE STREAM AT THOMPSONVILLE NY,"41°40'04.1""","74°37'22.9""",NAD83,Sullivan,02040104,28.4,1114.51,NAVD88
227,USGS,01436690,NEVERSINK RIVER AT BRIDGEVILLE NY,"41°38'17.0""","74°37'00.8""",NAD83,Sullivan,02040104,171,1055.56,NAVD88
228,USGS,01437100,GUMAER BROOK NEAR WURTSBORO NY,"41°35'45.4""","74°28'05.5""",NAD83,Sullivan,02040104,10.3,563.67,NAVD88
229,USGS,01437349,BASHER KILL BLW BASHAKILL MARSH AT WESTBROOKVILLE,"41°29'58.7""","74°33'08.0""",NAD83,Orange,02040104,63.7,493.40,NAVD88
230,USGS,01437400,BASHER KILL AT CUDDEBACKVILLE NY,"41°27'14.2""","74°35'21.5""",NAD83,Orange,02040104,70.3,476.57,NAVD88
231,USGS,01437500,NEVERSINK RIVER AT GODEFFROY NY,"41°26'28.9""","74°36'06.8""",NAD83,Orange,02040104,307,458.86,NAVD88
232,USGS,01498620,SUSQUEHANNA RIVER SOUTHWEST OF ONEONTA NY,"42°26'24""","75°06'00""",NAD83,Otsego,02050101,678,1048,NGVD29
233,USGS,01500000,OULEOUT CREEK AT EAST SIDNEY NY,"42°19'59.3""","75°14'03.5""",NAD83,Delaware,02050101,103,1085.82,NAVD88
234,USGS,01500500,SUSQUEHANNA RIVER AT UNADILLA NY,"42°19'17.4""","75°18'59.0""",NAD83,Otsego,02050101,982,995.71,NAVD88
235,USGS,01502000,BUTTERNUT CREEK AT MORRIS NY,"42°32'43""","75°14'21""",NAD83,Otsego,02050101,59.7,1096.21,NGVD29
236,USGS,01502500,UNADILLA RIVER AT ROCKDALE NY,"42°22'40""","75°24'22""",NAD83,Chenango,02050101,520,991.95,NAVD88
237,USGS,01502632,SUSQUEHANNA RIVER AT BAINBRIDGE NY,"42°17'30.6""","75°28'36.4""",NAD83,Chenango,02050101,1610,956.14,NAVD88
238,USGS,01502731,SUSQUEHANNA RIVER AT WINDSOR NY,"42°04'26.6""","75°38'13.0""",NAD83,Broome,02050101,1820,899.53,NAVD88
239,USGS,01503000,SUSQUEHANNA RIVER AT CONKLIN NY,"42°02'08.0""","75°48'08.2""",NAD83,Broome,02050101,2232,840.36,NAVD88
240,USGS,01503500,SUSQUEHANNA RIVER AT BINGHAMTON NY,"42°05'33""","75°54'53""",NAD83,Broome,02050101,2283,821.02,NAVD88
241,USGS,01505000,CHENANGO RIVER AT SHERBURNE NY,"42°40'43""","75°30'38""",NAD83,Chenango,02050102,263,1036.86,NAVD88
242,USGS,01505810,CHENANGO RIVER AT OXFORD NY,"42°26'30""","75°35'47""",NAD83,Chenango,02050102,458,949.44,NAVD88
243,USGS,01507000,CHENANGO RIVER AT GREENE NY,"42°19'28""","75°46'17""",NAD83,Chenango,02050102,593,891.98,NAVD88
244,USGS,01509000,TIOUGHNIOGA RIVER AT CORTLAND NY,"42°36'09.6""","76°09'33.8""",NAD83,Cortland,02050102,292,1084.46,NAVD88
245,USGS,01509520,TIOUGHNIOGA RIVER AT LISLE NY,"42°20'58""","75°59'57""",NAD83,Broome,02050102,453,956.06,NAVD88
246,USGS,01510000,OTSELIC RIVER AT CINCINNATUS NY,"42°32'28""","75°53'59""",NAD83,Cortland,02050102,147,1031.11,NAVD88
247,USGS,01511500,TIOUGHNIOGA RIVER AT ITASKA NY,"42°17'53""","75°54'32""",NAD83,Broome,02050102,730,917.52,NAVD88
248,USGS,01512500,CHENANGO RIVER NEAR CHENANGO FORKS NY,"42°13'05.0""","75°50'53.3""",NAD83,Broome,02050102,1483,871.18,NAVD88
249,USGS,01513500,SUSQUEHANNA RIVER AT VESTAL NY,"42°05'30.0""","76°03'23.5""",NAD83,Broome,02050103,3941,798.72,NAVD88
250,USGS,01513831,SUSQUEHANNA RIVER AT OWEGO NY,"42°05'46.1""","76°15'56.5""",NAD83,Tioga,02050103,4216,776.09,NAVD88
251,USGS,01514000,OWEGO CREEK NEAR OWEGO NY,"42°07'37.6""","76°16'12.4""",NAD83,Tioga,02050103,185,819.43,NAVD88
252,USGS,01520500,TIOGA RIVER AT LINDLEY NY,"42°01'43""","77°07'56""",NAD83,Steuben,02050104,771,963.91,NAVD88
253,USGS,01521500,CANISTEO RIVER AT ARKPORT NY,"42°23'45""","77°42'41""",NAD83,Steuben,02050104,30.6,1202.66,NAVD88
254,USGS,01523500,CANACADEA CREEK NEAR HORNELL NY,"42°20'05.5""","77°40'57.6""",NAD83,Steuben,02050104,57.9,1185.09,NAVD88
255,USGS,01524500,CANISTEO RIVER BELOW CANACADEA CREEK AT HORNELL NY,"42°18'48.5""","77°39'03.9""",NAD83,Steuben,02050104,158,1130.88,NAVD88
256,USGS,01525500,CANISTEO RIVER AT WEST CAMERON NY,"42°13'20.9""","77°25'03.1""",NAD83,Steuben,02050104,340,1037.47,NAVD88
257,USGS,01525981,TUSCARORA CREEK ABOVE SOUTH ADDISON NY,"42°04'20""","77°17'56""",NAD83,Steuben,02050104,102,1078.45,NAVD88
258,USGS,01526500,TIOGA RIVER NEAR ERWINS NY,"42°07'16""","77°07'45""",NAD83,Steuben,02050104,1377,930.82,NAVD88
259,USGS,01527500,COHOCTON RIVER AT AVOCA NY,"42°24'39.8""","77°25'34.9""",NAD83,Steuben,02050105,152,1182.31,NAVD88
260,USGS,01528000,FIVEMILE CREEK NEAR KANONA NY,"42°23'18""","77°21'28""",NAD83,Steuben,02050105,66.8,1170.3,NGVD29
261,USGS,01528320,COHOCTON RIVER AT BATH NY,"42°20'36""","77°20'38""",NAD83,Steuben,02050105,316,1099.35,NAVD88
262,USGS,01529500,COHOCTON RIVER NEAR CAMPBELL NY,"42°15'09""","77°13'00""",NAD83,Steuben,02050105,470,1013.89,NAVD88
263,USGS,01529950,CHEMUNG RIVER AT CORNING NY,"42°08'47.1""","77°03'27.0""",NAD83,Steuben,02050105,2006,899.46,NAVD88
264,USGS,01530332,CHEMUNG RIVER AT ELMIRA NY,"42°05'11""","76°48'04""",NAD83,Chemung,02050105,2162,833.04,NAVD88
265,USGS,01530500,NEWTOWN CREEK AT ELMIRA NY,"42°06'16""","76°47'53""",NAD83,Chemung,02050105,77.5,838.35,NGVD29
266,USGS,01531000,CHEMUNG RIVER AT CHEMUNG NY,"42°00'08""","76°38'05""",NAD83,Chemung,02050105,2506,778.66,NAVD88
267,USGS,03010674,ROOT CREEK AT DAVIS STREET AT BOLIVAR NY,"42°03'51.8""","78°09'46.6""",NAD83,Allegany,05010001,8.29,1605.79,NAVD88
268,USGS,03010720,DODGE CREEK AT PORTVILLE NY,"42°02'10.7""","78°20'32.5""",NAD83,Cattaraugus,05010001,47.7,1410.93,NAVD88
269,USGS,03010820,ALLEGHENY RIVER AT OLEAN NY,"42°04'20.5""","78°27'03.1""",NAD83,Cattaraugus,05010001,1168,1399.50,NAVD88
270,USGS,03011020,ALLEGHENY RIVER AT SALAMANCA NY,"42°09'24.6""","78°42'56.0""",NAD83,Cattaraugus,05010001,1608,1357.49,NAVD88
271,USGS,03013000,CONEWANGO CREEK AT WATERBORO NY,"42°10'15""","79°04'09""",NAD83,Chautauqua,05010002,290,1255.3,NGVD29
272,USGS,03014500,CHADAKOIN RIVER AT FALCONER NY,"42°06'45.5""","79°12'13.1""",NAD83,Chautauqua,05010002,194,1255.88,NAVD88
273,USGS,04213319,CHAUTAUQUA CREEK BELOW WESTFIELD NY,"42°19'50.9""","79°35'23.7""",NAD83,Chautauqua,04120101,35.0,613.62,NAVD88
274,USGS,04213376,CANADAWAY CREEK AT FREDONIA NY,"42°27'02.3""","79°21'01.6""",NAD83,Chautauqua,04120101,32.9,637.01,NAVD88
275,USGS,04213394,SILVER CREEK AT US ROUTE 20 AT SILVER CREEK NY,"42°32'38.1""","79°09'52.8""",NAD83,Chautauqua,04120101,25.2,576.85,NAVD88
276,USGS,04213401,WALNUT CREEK AT US ROUTE 20 AT SILVER CREEK NY,"42°32'18.1""","79°10'08.3""",NAD83,Chautauqua,04120101,25.6,587.55,NAVD88
277,USGS,04213500,CATTARAUGUS CREEK AT GOWANDA NY,"42°27'48.4""","78°56'04.3""",NAD83,Erie,04120102,436,738.36,NAVD88
278,USGS,04213508,THATCHER BROOK AT GOWANDA NY,"42°27'12.7""","78°56'29.6""",NAD83,Cattaraugus,04120102,6.69,785.39,NAVD88
279,USGS,04214060,BIG SISTER CREEK AT EVANS CENTER NY,"42°39'25.7""","79°02'07.8""",NAD83,Erie,04120103,48.4,591.72,NAVD88
280,USGS,0421422210,EIGHTEENMILE CREEK AT HAMBURG NY,"42°42'23.6""","78°50'57.3""",NAD83,Erie,04120103,61.5,741.37,NAVD88
281,USGS,04214231,S BR EIGHTEENMILE CR AT BLEY RD AT EDEN VALLEY,"42°40'49.0""","78°52'43.3""",NAD83,Erie,04120103,36.6,734.14,NAVD88
282,USGS,04214500,BUFFALO CREEK AT GARDENVILLE NY,"42°51'16.6""","78°45'23.1""",NAD83,Erie,04120103,142,603.11,NAVD88
283,USGS,04215000,CAYUGA CREEK NEAR LANCASTER NY,"42°53'24.3""","78°38'41.8""",NAD83,Erie,04120103,96.4,671.51,NAVD88
284,USGS,04215500,CAZENOVIA CREEK AT EBENEZER NY,"42°49'46.3""","78°46'30.1""",NAD83,Erie,04120103,135,603.80,NAVD88
285,USGS,04216200,SCAJAQUADA CREEK AT BUFFALO NY,"42°54'41""","78°47'44""",NAD83,Erie,04120104,15.8,626.26,NGVD29
286,USGS,04216418,TONAWANDA CREEK AT ATTICA NY,"42°51'52.9""","78°17'00.3""",NAD83,Wyoming,04120104,76.9,954.10,NAVD88
287,USGS,04216500,LITTLE TONAWANDA CREEK AT LINDEN NY,"42°52'37""","78°09'47""",NAD83,Genesee,04120104,22.1,1081.62,NGVD29
288,USGS,04217000,TONAWANDA CREEK AT BATAVIA NY,"42°59'49.7""","78°11'17.4""",NAD83,Genesee,04120104,171,875.84,NAVD88
289,USGS,04217750,MURDER CREEK NEAR AKRON NY,"43°02'49""","78°30'46""",NAD83,Erie,04120104,57.5,623.78,NGVD29
290,USGS,04218000,TONAWANDA CREEK AT RAPIDS NY,"43°05'36.6""","78°38'10.2""",NAD83,Niagara,04120104,349,570.70,NAVD88
291,USGS,04218518,ELLICOTT CREEK BELOW WILLIAMSVILLE NY,"42°58'40.6""","78°45'49.3""",NAD83,Erie,04120104,79.7,585.95,NAVD88
292,USGS,04218601,ERIE (BARGE) C ABV HALLS WASTE WEIR AT LOCKPORT NY,"43°10'28.9""","78°41'20.6""",NAD83,Niagara,04130001,,502.10,NAVD88
293,USGS,04218700,ERIE(BARGE)CANAL(W OF GENESEE R)AT ROCHESTER NY,"43°07'32.2""","77°39'00.4""",NAD83,Monroe,04130003,,494.41,NAVD88
294,USGS,04219000,ERIE (BARGE) CANAL AT LOCK 30 AT MACEDON NY,"43°04'18.4""","77°17'49.1""",NAD83,Wayne,04140201,,447.00,NAVD88
295,USGS,04219767,EIGHTEENMILE CREEK AT NEWFANE NY,"43°15'09.2""","78°41'52.3""",NAD83,Niagara,04130001,71.0,332.33,NAVD88
296,USGS,04219768,EIGHTEENMILE CREEK AT BURT NY,"43°18'49.7""","78°42'55.5""",NAD83,Niagara,04130001,84.8,244.48,NAVD88
297,USGS,04219915,JOHNSON CREEK AT KUCKVILLE NY,"43°21'39.0""","78°15'52.3""",NAD83,Orleans,04130001,107,235.45,NAVD88
298,USGS,04220045,OAK ORCHARD CREEK NEAR SHELBY NY,"43°10'27.5""","78°23'11.0""",NAD83,Orleans,04130001,146,598.22,NAVD88
299,USGS,0422016550,OAK ORCHARD CREEK NEAR KENYONVILLE NY,"43°18'03.6""","78°18'37.6""",NAD83,Orleans,04130001,202,327.43,NAVD88
300,USGS,0422018610,OAK ORCHARD CREEK AT THE BRIDGES NY,"43°21'11.9""","78°11'35.0""",NAD83,Orleans,04130001,272,229.39,NAVD88
301,USGS,04220223,SANDY CREEK AT NORTH HAMLIN NY,"43°20'20.7""","77°54'54.8""",NAD83,Monroe,04130001,85.8,252.67,NAVD88
302,USGS,04220250,WEST CREEK NEAR HILTON NY,"43°18'10""","77°48'49""",NAD83,Monroe,04130001,31.0,261.53,NGVD29
303,USGS,0422026250,NORTHRUP CREEK AT NORTH GREECE NY,"43°15'13.9""","77°44'31.5""",NAD83,Monroe,04130001,10.1,305.23,NAVD88
304,USGS,0422027430,ROUND POND CREEK AT STRAUB ROAD AT GREECE NY,"43°11'53.0""","77°42'39.1""",NAD83,Monroe,04130001,7.89,435.23,NAVD88
305,USGS,04221000,GENESEE RIVER AT WELLSVILLE NY,"42°07'20""","77°57'26""",NAD83,Allegany,04130002,288,1469.51,NAVD88
306,USGS,04223000,GENESEE RIVER AT PORTAGEVILLE NY,"42°34'13""","78°02'32""",NAD83,Wyoming,04130002,984,1079.72,NAVD88
307,USGS,04224775,CANASERAGA CREEK ABOVE DANSVILLE NY,"42°32'08""","77°42'15""",NAD83,Livingston,04130002,88.9,713.83,NAVD88
308,USGS,04226000,KESHEQUA CR AT CRAIG COLONY AT SONYEA NY,"42°40'56.9""","77°49'43.3""",NAD83,Livingston,04130002,68.3,581.76,NAVD88
309,USGS,04227000,CANASERAGA CREEK AT SHAKERS CROSSING NY,"42°44'09.8""","77°50'29.1""",NAD83,Livingston,04130002,335,544.97,NAVD88
310,USGS,04227500,GENESEE RIVER NEAR MOUNT MORRIS NY,"42°46'00""","77°50'20""",NAD83,Livingston,04130003,1424,539.57,NAVD88
311,USGS,04227995,CONESUS CREEK NEAR LAKEVILLE NY,"42°51'15.0""","77°42'55.0""",NAD83,Livingston,04130003,72.0,806.35,NAVD88
312,USGS,04228500,GENESEE RIVER AT AVON NY,"42°55'21.8""","77°45'26.7""",NAD83,Livingston,04130003,1680,499.56,NAVD88
313,USGS,04229500,HONEOYE CREEK AT HONEOYE FALLS NY,"42°57'26""","77°35'20""",NAD83,Monroe,04130003,196,607.79,NAVD88
314,USGS,04230380,OATKA CREEK AT WARSAW NY,"42°44'33.6""","78°08'15.4""",NAD83,Wyoming,04130003,39.5,986.66,NAVD88
315,USGS,04230500,OATKA CREEK AT GARBUTT NY,"43°00'36""","77°47'29""",NAD83,Monroe,04130003,205,560.15,NAVD88
316,USGS,04230650,GENESEE R AT BALLANTYNE BRIDGE NEAR MORTIMER NY,"43°05'34.6""","77°40'51.0""",NAD83,Monroe,04130003,2210,499.33,NAVD88
317,USGS,04231000,BLACK CREEK AT CHURCHVILLE NY,"43°06'02""","77°52'56""",NAD83,Monroe,04130003,130,551.88,NGVD29
318,USGS,04231401,RED CREEK BELOW CO HWY 85 AT MORTIMER NY,"43°05'36.7""","77°39'02.6""",NAD83,Monroe,04130003,16.6,507.30,NAVD88
319,USGS,04231600,"GENESEE RIVER AT FORD STREET BRIDGE, ROCHESTER NY","43°08'30.2""","77°36'58.7""",NAD83,Monroe,04130003,2474,498.40,NAVD88
320,USGS,04232000,GENESEE RIVER AT ROCHESTER NY,"43°10'51.2""","77°37'41.9""",NAD83,Monroe,04130003,2482,244.24,NGVD29
321,USGS,04232034,IRONDEQUOIT CR AT RAILROAD MILLS NEAR FISHERS NY,"43°01'40.2""","77°28'43.4""",NAD83,Ontario,04140101,39.2,443.50,NAVD88
322,USGS,04232040,IRONDEQUOIT CREEK NEAR PITTSFORD NY,"43°03'15""","77°29'27""",NAD83,Monroe,04140101,44.4,405,NGVD29
323,USGS,0423204140,MILL CR TRIB SITEA-MILL RD NR BUSHNELL BASIN NY,"43°03'38""","77°30'18""",NAD27,Monroe,04140101,,485,NGVD29
324,USGS,0423204141,MILL CR TRIB SITEB-MILL RD NR BUSHNELL BASIN NY,"43°03'38""","77°30'12""",NAD27,Monroe,04140101,,465,NGVD29
325,USGS,0423204920,EAST BRANCH ALLEN CREEK AT PITTSFORD NY,"43°06'11""","77°32'00""",NAD83,Monroe,04140101,9.50,400,NGVD29
326,USGS,04232050,ALLEN CREEK NEAR ROCHESTER NY,"43°07'40.9""","77°31'37.2""",NAD83,Monroe,04140101,28.9,375.67,NAVD88
327,USGS,0423205010,IRONDEQUOIT CR ABOVE BLOSSOM RD NEAR ROCHESTER NY,"43°08'42""","77°30'43""",NAD83,Monroe,04140101,142,247.51,NAVD88
328,USGS,0423205025,"IRONDEQUOIT CREEK AT EMPIRE BLVD, ROCHESTER NY","43°10'33""","77°31'34""",NAD83,Monroe,04140101,151,242.66,NGVD29
329,USGS,04232053,MILL CREEK NEAR WEBSTER NY,"43°15'27.7""","77°26'48.7""",NAD83,Monroe,04140101,9.69,254.73,NAVD88
330,USGS,04232076,SODUS CREEK AT NORTH ROSE NY,"43°11'29.8""","76°54'44.7""",NAD83,Wayne,04140101,9.2,294.54,NAVD88
331,USGS,04232100,STERLING CREEK AT STERLING NY,"43°19'31""","76°38'50""",NAD83,Cayuga,04140101,45.9,259.37,NAVD88
332,USGS,04232200,CATHARINE CR AT MONTOUR FALLS NY,"42°19'41.8""","76°50'38.1""",NAD83,Schuyler,04140201,39.4,473.40,NAVD88
333,USGS,0423245850,SUGAR CREEK AT COUNTY HOUSE ROAD AT GUYANOGA NY,"42°37'39.7""","77°09'32.1""",NAD83,Yates,04140201,24.4,745.70,NAVD88
334,USGS,04232482,KEUKA LAKE OUTLET AT DRESDEN NY,"42°40'49.2""","76°57'14.0""",NAD83,Yates,04140201,207,444.85,NAVD88
335,USGS,04232730,SENECA RIVER NEAR SENECA FALLS NY,"42°56'20""","76°45'40""",NAD83,Seneca,04140201,785,376.25,NAVD88
336,USGS,04233000,CAYUGA INLET NEAR ITHACA NY,"42°23'35""","76°32'42""",NAD83,Tompkins,04140201,35.2,437.16,NGVD29
337,USGS,04233255,CAYUGA INLET AT ITHACA NY,"42°25'38""","76°31'18""",NAD83,Tompkins,04140201,86.7,379.29,NAVD88
338,USGS,04233286,SIXMILE CREEK AT BROOKTONDALE NY,"42°22'53""","76°23'40""",NAD83,Tompkins,04140201,27.0,909.90,NAVD88
339,USGS,04233300,SIXMILE CREEK AT BETHEL GROVE NY,"42°24'09.5""","76°26'08.1""",NAD83,Tompkins,04140201,39.0,759.26,NAVD88
340,USGS,0423368620,VIRGIL CREEK AT SH 13 AT DRYDEN NY,"42°29'25""","76°18'22""",NAD83,Tompkins,04140201,29.7,,
341,USGS,04234000,FALL CREEK NEAR ITHACA NY,"42°27'12""","76°28'22""",NAD83,Tompkins,04140201,126,794.52,NAVD88
342,USGS,0423401815,SALMON CREEK NEAR LUDLOWVILLE NY,"42°33'09.4""","76°32'01.8""",NAD83,Tompkins,04140201,87.7,418.00,NAVD88
343,USGS,0423406130,SENECA RIVER AT FREE BRIDGE CORNERS NY,"42°57'46.3""","76°44'14.0""",NAD27,Seneca,04140201,1566,367.00,NAVD88
344,USGS,04234232,GREAT BROOK BELOW VICTOR NY,"42°58'41""","77°23'46""",NAD83,Ontario,04140201,16.8,,
345,USGS,04234254,GANARGUA CREEK AT MACEDON NY,"43°04'02.9""","77°17'53.6""",NAD83,Wayne,04140201,115,446.37,NAVD88
346,USGS,04234398,WEST RIVER AT MIDDLESEX NY,"42°42'16.8""","77°16'33.3""",NAD83,Yates,04140201,24.6,709.12,NAVD88
347,USGS,04235000,CANANDAIGUA OUTLET AT CHAPIN NY,"42°55'05.6""","77°13'58.0""",NAD83,Ontario,04140201,195,670.92,NAVD88
348,USGS,04235250,FLINT CREEK AT PHELPS NY,"42°57'28""","77°04'05""",NAD83,Ontario,04140201,102,522.60,NAVD88
349,USGS,0423527080,CLYDE RIVER (ERIE CANAL) AT CLYDE NY,"43°04'57.3""","76°52'39.1""",NAD83,Wayne,04140201,833,370.00,NAVD88
350,USGS,04235276,BLACK BROOK AT TYRE NY,"42°59'30""","76°48'12""",NAD83,Seneca,04140201,19.0,391.12,NGVD29
351,USGS,04235299,OWASCO INLET BELOW AURORA STREET AT MORAVIA NY,"42°42'41.7""","76°26'02.4""",NAD83,Cayuga,04140201,106,716.73,NAVD88
352,USGS,04235440,"OWASCO OUTLET AT GENESEE ST., AUBURN NY","42°55'56.6""","76°33'48.8""",NAD83,Cayuga,04140201,204,659.92,NAVD88
353,USGS,04235500,OWASCO OUTLET NEAR AUBURN NY,"42°56'48""","76°35'55""",NAD83,Cayuga,04140201,206,533.92,NGVD29
354,USGS,04235600,SENECA RIVER (ERIE CANAL) NEAR PORT BYRON NY,"43°04'43""","76°38'44""",NAD83,Cayuga,04140201,2815,369.00,NAVD88
355,USGS,04235820,GROUT BROOK TRIB SOUTHEAST OF FAIR HAVEN NY,"42°45'28""","76°14'43""",NAD83,Cortland,04140201,0.27,1600,NGVD29
356,USGS,04235890,GROUT BROOK NEAR FAIR HAVEN NY,"42°44'31.3""","76°15'55.3""",NAD83,Cortland,04140201,8.03,970.24,NAVD88
357,USGS,04236800,SKANEATELES CREEK NEAR SKANEATELES JUNCTION NY,"43°00'53.6""","76°28'20.1""",NAD83,Onondaga,04140201,85.9,561.37,NAVD88
358,USGS,04237020,SENECA R (BARGE CANAL) AT CROSS LAKE NR JORDAN NY,"43°06'00.5""","76°29'53.4""",NAD83,Onondaga,04140201,3040,362.60,NAVD88
359,USGS,04237411,"SENECA RIVER, MOUTH OF STATE DITCH, NR JORDAN NY","43°06'54.1""","76°26'19.0""",NAD83,Onondaga,04140201,3093,371.19,NAVD88
360,USGS,04237496,SENECA RIVER NEAR BALDWINSVILLE NY,"43°09'44.4""","76°21'45.7""",NAD83,Onondaga,04140201,3130,370.00,NAVD88
361,USGS,04237500,SENECA RIVER AT BALDWINSVILLE NY,"43°09'25""","76°19'54""",NAD83,Onondaga,04140201,3138,361.38,NGVD29
362,USGS,04237555,SENECA R (US ONONDAGA OUTLET) NEAR LIVERPOOL NY,"43°07'15.9""","76°15'09.2""",NAD83,Onondaga,04140201,3158,,
363,USGS,04237575,SENECA RIVER (ERIE CANAL) AT COLD SPRINGS NY,"43°07'40.1""","76°15'24.3""",NAD83,Onondaga,04140201,3156,,
364,USGS,04237944,ONONDAGA CR TRIB 6 ABV MUDBOIL AREA NR TULLY NY,"42°51'13""","76°08'33""",NAD83,Onondaga,04140201,0.26,,
365,USGS,04237946,ONONDAGA CR TRIB 6 BLW MUDBOIL AREA AT TULLY NY,"42°51'18""","76°08'23""",NAD83,Onondaga,04140201,0.32,,
366,USGS,04237962,ONONDAGA CREEK NEAR CARDIFF NY,"42°54'00""","76°10'09""",NAD83,Onondaga,04140201,35.3,486.62,NAVD88
367,USGS,04239000,"ONONDAGA CREEK AT DORWIN AVENUE, SYRACUSE NY","42°59'00""","76°09'03""",NAD83,Onondaga,04140201,88.5,413.61,NAVD88
368,USGS,04240010,"ONONDAGA CREEK AT SPENCER STREET, SYRACUSE NY","43°03'26.8""","76°09'43.2""",NAD83,Onondaga,04140201,110,361.56,NAVD88
369,USGS,04240100,HARBOR BROOK AT SYRACUSE NY,"43°02'09""","76°10'54""",NAD83,Onondaga,04140201,10.0,391.16,NGVD29
370,USGS,04240105,"HARBOR BROOK AT HIAWATHA BOULEVARD, SYRACUSE NY","43°03'22""","76°11'06""",NAD83,Onondaga,04140201,12.1,365.20,NAVD88
371,USGS,04240120,"LEY CREEK AT PARK STREET, SYRACUSE NY","43°04'38""","76°10'13""",NAD83,Onondaga,04140201,29.9,362.17,NAVD88
372,USGS,0424014980,SPAFFORD CR TRIB NR SAWMILL RD NR SPAFFORD NY,"42°49'35""","76°13'55""",NAD83,Onondaga,04140201,0.11,,
373,USGS,0424015305,RICE BROOK AT RICE GROVE NY,"42°51'07""","76°15'32""",NAD83,Onondaga,04140201,2.44,800,NGVD29
374,USGS,04240158,WILLOW BROOK NEAR BORODINO NY,"42°52'27.9""","76°19'30.8""",NAD83,Onondaga,04140201,1.95,,
375,USGS,04240180,NINEMILE CREEK NEAR MARIETTA NY,"42°55'15""","76°19'46""",NAD83,Onondaga,04140201,45.1,748.25,NGVD29
376,USGS,04240200,NINEMILE CREEK AT CAMILLUS NY,"43°02'21""","76°18'29""",NAD83,Onondaga,04140201,84.3,398.56,NGVD29
377,USGS,04240300,NINEMILE CREEK AT LAKELAND NY,"43°04'51""","76°13'35""",NAD83,Onondaga,04140201,115,360.09,NAVD88
378,USGS,04240503,ONONDAGA LAKE OUTLET NEAR LIVERPOOL NY,"43°07'10.4""","76°14'46.7""",NAD83,Onondaga,04140201,287,,
379,USGS,04240508,SENECA R (DS ONONDAGA OUTLET) NEAR LIVERPOOL NY,"43°07'34.0""","76°15'07.0""",NAD83,Onondaga,04140201,3446,,
380,USGS,04242500,EAST BRANCH FISH CREEK AT TABERG NY,"43°18'02.6""","75°37'22.4""",NAD83,Oneida,04140202,188,484.57,NAVD88
381,USGS,04242640,FISH CREEK AT BECKS GROVE NY,"43°15'29.7""","75°36'46.9""",NAD83,Oneida,04140202,403,368.97,NAVD88
382,USGS,04243500,ONEIDA CREEK AT ONEIDA NY,"43°05'51.2""","75°38'21.9""",NAD83,Oneida,04140202,113,408.71,NAVD88
383,USGS,04243783,COWASELON CREEK AT STATE ROUTE 13 AT CANASTOTA NY,"43°05'44.2""","75°45'04.4""",NAD83,Madison,04140202,41.4,386.85,NAVD88
384,USGS,04244000,CHITTENANGO CREEK NEAR CHITTENANGO NY,"43°01'23""","75°51'31""",NAD83,Madison,04140202,66.3,489.16,NAVD88
385,USGS,04245236,"MEADOW BROOK AT HURLBURT RD, SYRACUSE NY","43°02'31.1""","76°06'02.1""",NAD83,Onondaga,04140202,2.94,511.5,NGVD29
386,USGS,04245840,SCRIBA CREEK NEAR CONSTANTIA NY,"43°15'35.3""","76°00'10.0""",NAD83,Oswego,04140202,39.8,401.49,NAVD88
387,USGS,04246500,ONEIDA RIVER AT CAUGHDENOY NY,"43°14'49""","76°10'11""",NAD83,Oswego,04140202,1382,360.98,NGVD29
388,USGS,04247000,ONEIDA RIVER NEAR EUCLID NY,"43°12'19.3""","76°13'04.0""",NAD83,Oswego,04140202,1439,359.41,NAVD88
389,USGS,04247055,OSWEGO RIVER NEAR PHOENIX NY,"43°12'40.2""","76°17'13.6""",NAD83,Oswego,04140203,4953,359.41,NAVD88
390,USGS,04249000,"OSWEGO RIVER AT LOCK 7, OSWEGO NY","43°27'06""","76°30'19""",NAD83,Oswego,04140203,5100,244.47,NAVD88
391,USGS,04249200,NORTH BRANCH SALMON RIVER AT REDFIELD NY,"43°32'32.5""","75°48'50.3""",NAD83,Oswego,04140102,82.5,948.45,NAVD88
392,USGS,04250200,SALMON RIVER AT PINEVILLE NY,"43°31'52.3""","76°02'15.7""",NAD83,Oswego,04140102,238,475.35,NAVD88
393,USGS,0425040001,TROUT BROOK UPSTREAM OF CR-48 AT CENTERVILLE NY,"43°32'49.1""","76°02'33.7""",NAD83,Oswego,04140102,19.1,,
394,USGS,04250750,SANDY CREEK NEAR ADAMS NY,"43°48'49.3""","76°04'28.0""",NAD83,Jefferson,04140102,137,523.26,NAVD88
395,USGS,04252500,BLACK RIVER NEAR BOONVILLE NY,"43°30'41.8""","75°18'24.4""",NAD83,Oneida,04150101,284,934.46,NAVD88
396,USGS,04253294,"BUCK CREEK, SOUTH TRIBUTARY, NEAR INLET NY","43°44'30.8""","74°42'39.3""",NAD83,Hamilton,04150101,0.21,1940,NAVD88
397,USGS,04253295,"BUCK CREEK, NORTH TRIBUTARY, NEAR INLET NY","43°44'37.3""","74°42'47.6""",NAD83,Hamilton,04150101,0.19,1980,NAVD88
398,USGS,04253296,BUCK CREEK NEAR INLET NY,"43°44'38""","74°43'20""",NAD27,Hamilton,04150101,1.16,1850,NAVD88
399,USGS,04254500,MOOSE RIVER AT MCKEEVER NY,"43°36'37.1""","75°06'35.8""",NAD83,Herkimer,04150101,363,1479.71,NAVD88
400,USGS,04256000,INDEPENDENCE RIVER AT DONNATTSBURG NY,"43°44'48.5""","75°20'00.4""",NAD83,Lewis,04150101,88.7,972.40,NAVD88
401,USGS,04256485,WOODS LAKE OUTLET NR BIG MOOSE NY,"43°51'56.37""","74°57'18.43""",NAD83,Herkimer,04150101,0.80,1980,NGVD29
402,USGS,04258000,BEAVER RIVER AT CROGHAN NY,"43°53'49.8""","75°24'15.4""",NAD83,Lewis,04150101,291,805.87,NAVD88
403,USGS,04260500,BLACK RIVER AT WATERTOWN NY,"43°59'09.0""","75°55'28.6""",NAD83,Jefferson,04150101,1864,374.09,NAVD88
404,USGS,04262000,OSWEGATCHIE RIVER NEAR OSWEGATCHIE NY,"44°13'21.2""","75°04'27.5""",NAD83,Lawrence,04150302,259,1016.14,NAVD88
405,USGS,04262500,WEST BRANCH OSWEGATCHIE RIVER NEAR HARRISVILLE NY,"44°11'08""","75°19'51""",NAD83,Lawrence,04150302,258,737.97,NAVD88
406,USGS,04263000,OSWEGATCHIE RIVER NEAR HEUVELTON NY,"44°35'58""","75°22'44""",NAD83,Lawrence,04150302,986,287.68,NAVD88
407,USGS,04265432,GRASS RIVER AT CHASE MILLS NY,"44°50'47.5""","75°04'42.4""",NAD83,Lawrence,04150304,598,225.59,NAVD88
408,USGS,04266500,RAQUETTE RIVER AT PIERCEFIELD NY,"44°14'05""","74°34'19""",NAD83,Lawrence,04150305,721,1502.00,NAVD88
409,USGS,04267500,RAQUETTE RIVER AT SOUTH COLTON NY,"44°30'35.4""","74°53'01.0""",NAD83,Lawrence,04150305,937,881.78,NAVD88
410,USGS,04268000,RAQUETTE RIVER AT RAYMONDVILLE NY,"44°50'20.0""","74°58'44.0""",NAD83,Lawrence,04150305,1125,182.94,NAVD88
411,USGS,04268800,WEST BRANCH ST. REGIS RIVER NEAR PARISHVILLE NY,"44°35'55.5""","74°44'14.0""",NAD83,Lawrence,04150306,171,969.05,NAVD88
412,USGS,04269000,ST. REGIS RIVER AT BRASHER CENTER NY,"44°51'49.4""","74°46'43.3""",NAD83,Lawrence,04150306,612,216.83,NAVD88
413,USGS,04270000,SALMON RIVER AT CHASM FALLS NY,"44°45'22""","74°13'08""",NAD83,Franklin,04150307,132,1011.52,NGVD29
414,USGS,04270200,LITTLE SALMON RIVER AT BOMBAY NY,"44°56'24""","74°33'25""",NAD83,Franklin,04150307,89.7,173.56,NAVD88
415,USGS,04270510,CHATEAUGAY RIVER BELOW CHATEAUGAY NY,"44°57'49""","74°07'52""",NAD83,Franklin,04150308,151,411.33,NGVD29
416,USGS,04271500,GREAT CHAZY RIVER AT PERRY MILLS NY,"44°59'58.6""","73°30'07.5""",NAD83,Clinton,04150408,243,164.44,NAVD88
417,USGS,04271815,LITTLE CHAZY RIVER NEAR CHAZY NY,"44°54'08""","73°24'54""",NAD83,Clinton,04150408,50.3,105.83,NAVD88
418,USGS,04273500,SARANAC RIVER AT PLATTSBURGH NY,"44°40'54""","73°28'16""",NAD83,Clinton,04150406,608,155.40,NAVD88
419,USGS,04273700,SALMON RIVER AT SOUTH PLATTSBURGH NY,"44°38'24""","73°29'41""",NAD83,Clinton,04150408,63.3,220.45,NAVD88
420,USGS,04273800,LITTLE AUSABLE RIVER NEAR VALCOUR NY,"44°35'39""","73°29'46""",NAD83,Clinton,04150408,67.8,235.28,NAVD88
421,USGS,0427386410,N MEADOW BR TRIB BELOW NY RTE 73 NR NORTH ELBA NY,"44°14'12.25""","73°54'49.84""",NAD83,Essex,04150404,0.97,2018,NAVD88
422,USGS,04273996,W BR AUSABLE R TRIB 1 ABV ST HW 86 NR LK PLACID NY,"44°18'11.16""","73°55'13.10""",NAD83,Essex,04150404,1.3,1674.25,NAVD88
423,USGS,04274000,W BR AUSABLE R NR LAKE PLACID NY,"44°18'39.5""","73°54'56.5""",NAD83,Essex,04150404,116,1620.68,NAVD88
424,USGS,04274051,W BR AUSABLE R TRIB 2 BL ST HW 86 NR WILMINGTON NY,"44°20'57.40""","73°51'59.20""",NAD83,Essex,04150404,0.51,1287.18,NAVD88
425,USGS,04274185,WHITE BROOK NEAR WILMINGTON NY,"44°23'31.2""","73°51'26.6""",NAD83,Essex,04300104,1.22,,
426,USGS,04275000,EAST BRANCH AUSABLE RIVER AT AU SABLE FORKS NY,"44°26'14.6""","73°40'51.5""",NAD83,Essex,04150404,198,544.90,NAVD88
427,USGS,04275500,AUSABLE RIVER NEAR AU SABLE FORKS NY,"44°27'06.3""","73°38'33.6""",NAD83,Clinton,04150404,446,505.37,NAVD88
428,USGS,04276069,HIGHLANDS FORGE LAKE OUTLET NEAR WILLSBORO NY,"44°25'29""","73°25'33""",NAD83,Essex,04150408,10.9,280,NGVD29
429,USGS,04276500,BOQUET RIVER AT WILLSBORO NY,"44°21'30""","73°23'40""",NAD83,Essex,04150408,270,149.93,NAVD88
430,USGS,04276645,HOISINGTON BROOK AT WESTPORT NY,"44°11'15""","73°27'17""",NAD83,Essex,04150408,6.47,246,NGVD29
431,USGS,04276770,MILL BROOK AT PORT HENRY NY,"44°03'09""","73°28'45""",NAD83,Essex,04150408,27.0,150,NGVD29
432,USGS,04276842,PUTNAM CREEK EAST OF CROWN POINT CENTER NY,"43°56'33""","73°27'49""",NAD83,Essex,04150408,51.6,211.37,NAVD88
433,USGS,04278300,NORTHWEST BAY BROOK NEAR BOLTON LANDING NY,"43°39'48""","73°36'12""",NAD83,Warren,04150408,22.0,423.60,NGVD29
434,USGS,04279000,LA CHUTE AT TICONDEROGA NY,"43°50'38.5""","73°25'54.8""",NAD83,Essex,04150408,234,186.89,NAVD88
435,USGS,04279001,LA CHUTE (TAILRACE) AT TICONDEROGA NY,"43°50'38.7""","73°25'54.2""",NAD83,Essex,04150408,234,186.89,NAVD88
436,USGS,04279040,MILL BROOK AT PUTNAM NY,"43°44'01""","73°23'18""",NAD83,Washington,04150408,10.3,120,NGVD29
437,USGS,04279125,MOUNT HOPE BROOK AT SOUTH BAY NEAR WHITEHALL NY,"43°31'19""","73°30'25""",NAD83,Washington,04150408,11.6,110,NGVD29
438,USGS,04280450,METTAWEE RIVER NEAR MIDDLE GRANVILLE NY,"43°27'50.5""","73°17'04.2""",NAD83,Washington,04150401,167,315.35,NAVD88
439,USGS,405425073520901,HILLVIEW RESERVOIR HILLSIDE SEEP B NR YONKERS NY,"40°54'25.76""","73°52'09.77""",NAD83,Westchester,02030102,,,
440,USGS,424129077495501,"NY-SW4 ALFRED FARMS EDGE OF FIELD, SONYEA NY","42°41'29.0""","77°49'55.3""",NAD83,Livingston,04130002,,580,NAVD88
441,USGS,424129077495502,"NY-TL2 ALFRED TILE EDGE OF FIELD, SONYEA","42°41'28.9""","77°49'54.8""",NAD83,Livingston,04130002,,580,NAVD88
442,USGS,424131077495801,"NY-SW3 ALFRED FARMS EDGE OF FIELD, SONYEA NY","42°41'30.6""","77°49'57.5""",NAD83,Livingston,04130002,,580,NAVD88
443,USGS,424131077495802,"NY-TL1 ALFRED TILE EDGE OF FIELD, SONYEA NY","42°41'30.6""","77°49'56.9""",NAD83,Livingston,04130002,,580,NAVD88
444,USGS,424421077495301,"NY-SW1 MERRIMAC FARMS EDGE OF FIELD, E GROVELAND","42°44'21.43""","77°49'52.66""",NAD83,Livingston,04130002,,640,NAVD88
445,USGS,424428077495401,"NY-SW2 MERRIMAC FARMS EDGE OF FIELD, E GROVELAND","42°44'27.46""","77°49'54.00""",NAD83,Livingston,04130002,,650,NAVD88
446,USGS,425520078535601,"MANHOLE, WEST DELAVAN AVE, 110 FT W OF NIAGARA ST","42°55'20.2""","78°53'55.8""",NAD83,Erie,04120104,,592,NAVD88
447,USGS,425543078535001,"MANHOLE, 50 FT E NIAGARA ST, 115 FT S SCAJAQUADA C","42°55'42.6""","78°53'50.3""",NAD83,Erie,04120104,,587,NAVD88
448,USGS,441411073544501,"CONTROL, S SIDE RT 73 CATCH BASIN OUTLET NR N ELBA","44°14'11.40""","73°54'45.50""",NAD83,,,,2043,NAVD88
449,USGS,441729073571801,"ABRASIVES, E SIDE RT 86 CATCH BASIN OUT NR LK PLAC","44°17'29.47""","73°57'18.94""",NAD83,,,,1758,NAVD88
450,USGS,442004073540301,"LOW-SALT, W SIDE RT 86 CATCH BASIN OUT NR LK PLACI","44°20'04.31""","73°54'03.89""",NAD83,,,,1584,NAVD88
